BEIDOU 3 (C01)          
1 36287U 10001A   22327.63410811 -.00000258  00000+0  00000+0 0  9992
2 36287   1.7900  49.9617 0001450 252.4591 128.8770  1.00274814 47112
BEIDOU 5 (C06)          
1 36828U 10036A   22327.51716150 -.00000016  00000+0  00000+0 0  9995
2 36828  54.1973 174.7761 0030381 183.0036 356.1322  1.00252737 45173
BEIDOU 6 (C04)          
1 37210U 10057A   22327.60586440 -.00000090  00000+0  00000+0 0  9993
2 37210   0.8305  45.6183 0007045 164.0998 230.9896  1.00271537 44237
BEIDOU 7 (C07)          
1 37256U 10068A   22327.63850938 -.00000210  00000+0  00000+0 0  9998
2 37256  49.9317 287.7392 0022595 207.5747 263.4185  1.00256596 43742
BEIDOU 8 (C08)          
1 37384U 11013A   22327.65754382 -.00000202  00000+0  00000+0 0  9990
2 37384  60.5218  52.6912 0024470 184.7727 169.5075  1.00266079 42614
BEIDOU 9 (C09)          
1 37763U 11038A   22327.57202226  .00000086  00000+0  00000+0 0  9993
2 37763  54.4776 177.2774 0100732 227.5906 316.7759  1.00290095 41593
BEIDOU 10 (C10)         
1 37948U 11073A   22327.36681955 -.00000159  00000+0  00000+0 0  9996
2 37948  50.0525 287.3899 0085756 220.8888 139.9737  1.00258301 40354
BEIDOU 11 (C05)         
1 38091U 12008A   22327.57496942  .00000078  00000+0  00000+0 0  9997
2 38091   1.9197  70.5824 0009058 319.1577 298.5424  1.00275442 39428
BEIDOU 12 (C11)         
1 38250U 12018A   22327.18637762 -.00000055  00000+0  00000+0 0  9995
2 38250  56.6414 348.3156 0025027 254.6492 179.4937  1.86234417 72043
BEIDOU 13 (C12)         
1 38251U 12018B   22327.06257159 -.00000055  00000+0  00000+0 0  9991
2 38251  56.5571 347.6332 0015856 256.1969 139.0621  1.86234234 72049
BEIDOU 15 (C14)         
1 38775U 12050B   22326.99354781  .00000039  00000+0  00000+0 0  9999
2 38775  55.4972 106.3510 0010857 332.3407 212.2772  1.86231245 69418
BEIDOU 16 (C02)         
1 38953U 12059A   22327.73496896 -.00000153  00000+0  00000+0 0  9991
2 38953   1.3169  81.9012 0024706 291.6357  37.7831  1.00269781 36993
BEIDOU 17 (C31)         
1 40549U 15019A   22327.43838197 -.00000170  00000+0  00000+0 0  9994
2 40549  51.6107 310.9030 0038019 200.4316 163.3587  1.00262700 28031
BEIDOU 18 (C57)         
1 40748U 15037A   22327.15536931 -.00000056  00000+0  00000+0 0  9998
2 40748  55.8051 346.3998 0002340 325.3630  41.3601  1.86233395 49875
BEIDOU 19 (C58)         
1 40749U 15037B   22327.65344544 -.00000057  00000+0  00000+0 0  9992
2 40749  55.8100 346.3727 0005639 298.2367 176.5299  1.86233042 49873
BEIDOU 20 (C18)         
1 40938U 15053A   22327.27980574 -.00000144  00000+0  00000+0 0  9994
2 40938  51.2584 274.0460 0044594 200.1532 142.8630  1.00256645 26295
BEIDOU IGSO-6 (C13)     
1 41434U 16021A   22326.99174664 -.00000166  00000+0  00000+0 0  9999
2 41434  58.3290  51.2026 0049643 220.3468 240.6374  1.00294771 24421
BEIDOU-2 G7 (C03)       
1 41586U 16037A   22327.59829009 -.00000332  00000+0  00000+0 0  9996
2 41586   1.7308  69.2979 0008046 351.4071 327.8035  1.00273672 23737
BEIDOU-3 M1 (C19)       
1 43001U 17069A   22327.51162706  .00000036  00000+0  00000+0 0  9992
2 43001  55.6505 106.3554 0007353 288.5539  39.8148  1.86231556 34353
BEIDOU-3 M2 (C20)       
1 43002U 17069B   22327.22549328  .00000038  00000+0  00000+0 0  9992
2 43002  55.6504 106.4005 0005396 321.7063 217.6343  1.86231264 34340
BEIDOU-3 M3 (C27)       
1 43107U 18003A   22326.70938860 -.00000057  00000+0  00000+0 0  9994
2 43107  55.2586 347.2621 0003065  55.0038 304.6933  1.86232452 33094
BEIDOU-3 M4 (C28)       
1 43108U 18003B   22327.44522988 -.00000059  00000+0  00000+0 0  9999
2 43108  55.2514 347.2244 0004466 248.9953 287.0453  1.86230951 33118
BEIDOU-3 M5 (C21)       
1 43207U 18018A   22326.55268339  .00000042  00000+0  00000+0 0  9994
2 43207  55.6092 106.4959 0003629   8.0029 351.9802  1.86231499 32486
BEIDOU-3 M6 (C22)       
1 43208U 18018B   22326.61935016  .00000042  00000+0  00000+0 0  9995
2 43208  55.6084 106.4987 0005175 302.7036  57.2222  1.86231743 32483
BEIDOU-3 M7 (C29)       
1 43245U 18029A   22327.38257113 -.00000057  00000+0  00000+0 0  9995
2 43245  55.1642 344.9957 0001606 253.8591 107.7344  1.86232656 31650
BEIDOU-3 M8 (C30)       
1 43246U 18029B   22327.31229663 -.00000057  00000+0  10000-3 0  9993
2 43246  55.1624 345.0271 0003700 337.2198  23.9264  1.86232917 31648
BEIDOU IGSO-7 (C16)     
1 43539U 18057A   22327.26786523 -.00000028  00000+0  00000+0 0  9999
2 43539  55.0889 174.3263 0051207 225.7853 232.2661  1.00261855 16102
BEIDOU-3 M9 (C23)       
1 43581U 18062A   22327.26095731  .00000050  00000+0  00000+0 0  9990
2 43581  54.2356 226.6527 0003770 301.4975 236.6604  1.86232020 29387
BEIDOU-3 M10 (C24)      
1 43582U 18062B   22327.64812954  .00000051  00000+0  00000+0 0  9998
2 43582  54.2335 226.6285 0006201  10.5036 159.2460  1.86232515 29394
BEIDOU-3 M11 (C25)      
1 43602U 18067A   22326.77715403  .00000049  00000+0  00000+0 0  9997
2 43602  54.3185 225.2875 0007677  13.2999 333.4742  1.86231545 28869
BEIDOU-3 M12 (C26)      
1 43603U 18067B   22327.19151617  .00000052  00000+0  00000+0 0  9990
2 43603  54.3151 225.2396 0004729   4.7743 170.1575  1.86231499 28899
BEIDOU-3 M13 (C32)      
1 43622U 18072A   22327.47469461  .00000035  00000+0  00000+0 0  9998
2 43622  55.5780 106.0142 0004265 278.4731 115.1637  1.86231506 28413
BEIDOU-3 M14 (C33)      
1 43623U 18072B   22327.29145027  .00000036  00000+0  00000+0 0  9999
2 43623  55.5792 106.0130 0002020 328.6002  32.4214  1.86231506 28412
BEIDOU-3 M15 (C34)      
1 43647U 18078A   22327.17202303 -.00000057  00000+0  10000-3 0  9998
2 43647  55.0607 345.1486 0005901 352.6078 184.1345  1.86232957 27914
BEIDOU-3 M16 (C35)      
1 43648U 18078B   22327.04341707 -.00000057  00000+0  00000+0 0  9992
2 43648  55.0566 345.1588 0003518 356.5279   1.4588  1.86232277 27926
BEIDOU-3 G1 (C59)       
1 43683U 18085A   22327.57609325 -.00000254  00000+0  00000+0 0  9999
2 43683   1.0970 143.1491 0004357  62.6297 204.2290  1.00270991 15001
BEIDOU-3 M17 (C36)      
1 43706U 18093A   22327.19674577  .00000049  00000+0  00000+0 0  9994
2 43706  54.3156 226.5521 0008508 287.4463  72.5351  1.86231856 27297
BEIDOU-3 M18 (C37)      
1 43707U 18093B   22327.22607640  .00000050  00000+0  00000+0 0  9998
2 43707  54.3172 226.5411 0007920 314.3704 156.6509  1.86232360 27288
BEIDOU-3 IGSO-1 (C38)   
1 44204U 19023A   22327.66228238 -.00000232  00000+0  00000+0 0  9998
2 44204  56.7950  51.2718 0024259 193.5112 174.7560  1.00261692 13311
BEIDOU-2 G8             
1 44231U 19027A   22326.89424439 -.00000225  00000+0  00000+0 0  9999
2 44231   1.2434  79.9309 0006371 133.5567 314.7230  1.00266696 13015
BEIDOU-3 IGSO-2 (C39)   
1 44337U 19035A   22327.46993758 -.00000030  00000+0  00000+0 0  9998
2 44337  55.1286 170.3103 0025677 188.3201 350.8016  1.00255380 12645
BEIDOU-3 M23 (C45)      
1 44542U 19061A   22327.13318735  .00000049  00000+0  00000+0 0  9994
2 44542  54.5424 226.7273 0008949 350.6578   9.3992  1.86231459 21541
BEIDOU-3 M24 (C46)      
1 44543U 19061B   22327.02110324  .00000048  00000+0  00000+0 0  9996
2 44543  54.5420 226.7002 0005959 338.7309 217.6882  1.86231981 21536
BEIDOU-3 IGSO-3         
1 44709U 19073A   22326.97092620 -.00000199  00000+0  10000-3 0  9997
2 44709  57.0073 294.7339 0026596 183.4707  52.1187  1.00260809 11386
BEIDOU-3 M21            
1 44793U 19078A   22327.24563338 -.00000058  00000+0  10000-3 0  9999
2 44793  54.9094 345.1484 0005625 359.1972 180.5347  1.86232283 20402
BEIDOU-3 M22            
1 44794U 19078B   22327.20454032 -.00000058  00000+0  00000+0 0  9991
2 44794  54.8825 345.1381 0003664 347.3495  76.7768  1.86232914 20404
BEIDOU-3 M19            
1 44864U 19090A   22327.37494034  .00000036  00000+0  00000+0 0  9992
2 44864  55.5117 106.2202 0015113 267.6028 105.0804  1.86231795 19995
BEIDOU-3 M20            
1 44865U 19090B   22327.25792853  .00000037  00000+0  00000+0 0  9991
2 44865  55.5132 106.2564 0012981 282.3133 101.7573  1.86231741 19969
BEIDOU-3 G2             
1 45344U 20017A   22327.50750375 -.00000120  00000+0  00000+0 0  9990
2 45344   2.0001   0.4169 0002425 189.4013 135.3850  1.00269913 10203
BEIDOU-3 G3             
1 45807U 20040A   22327.59819785 -.00000332  00000+0  00000+0 0  9995
2 45807   1.0948 309.6052 0008528 340.3234  98.5322  1.00275028  9020
